CCSDS_OMM_VERS = 2.0
CREATION_DATE  = 
ORIGINATOR     = 

OBJECT_NAME    = DELTA 2 R/B(1)
OBJECT_ID      = 1990-008B
CENTER_NAME    = EARTH
REF_FRAME      = TEME
TIME_SYSTEM    = UTC
MEAN_ELEMENT_THEORY = SGP/SGP4

EPOCH          = 2026-02-15T03:37:17.735808
MEAN_MOTION    = 15.52817677
ECCENTRICITY   = .00909848
INCLINATION    = 35.6054
RA_OF_ASC_NODE = 322.4081
ARG_OF_PERICENTER = 48.0753
MEAN_ANOMALY   = 312.7696

EPHEMERIS_TYPE = 0
CLASSIFICATION_TYPE = U
NORAD_CAT_ID   = 20453
ELEMENT_SET_NO = 999
REV_AT_EPOCH   = 92262
BSTAR          = .79536943E-3
MEAN_MOTION_DOT = .61323E-3
MEAN_MOTION_DDOT = 0

CCSDS_OMM_VERS = 2.0
CREATION_DATE  = 
ORIGINATOR     = 

OBJECT_NAME    = COSMOS 2058
OBJECT_ID      = 1990-010A
CENTER_NAME    = EARTH
REF_FRAME      = TEME
TIME_SYSTEM    = UTC
MEAN_ELEMENT_THEORY = SGP/SGP4

EPOCH          = 2026-02-15T12:47:06.087840
MEAN_MOTION    = 15.11113810
ECCENTRICITY   = .0011352
INCLINATION    = 82.4654
RA_OF_ASC_NODE = 69.2561
ARG_OF_PERICENTER = 58.2033
MEAN_ANOMALY   = 302.0301

EPHEMERIS_TYPE = 0
CLASSIFICATION_TYPE = U
NORAD_CAT_ID   = 20465
ELEMENT_SET_NO = 999
REV_AT_EPOCH   = 93889
BSTAR          = .28555E-3
MEAN_MOTION_DOT = .4817E-4
MEAN_MOTION_DDOT = 0

CCSDS_OMM_VERS = 2.0
CREATION_DATE  = 
ORIGINATOR     = 

OBJECT_NAME    = SL-14 R/B
OBJECT_ID      = 1990-010B
CENTER_NAME    = EARTH
REF_FRAME      = TEME
TIME_SYSTEM    = UTC
MEAN_ELEMENT_THEORY = SGP/SGP4

EPOCH          = 2026-02-15T18:23:56.912352
MEAN_MOTION    = 14.83549839
ECCENTRICITY   = .0020263
INCLINATION    = 82.5017
RA_OF_ASC_NODE = 287.9841
ARG_OF_PERICENTER = 16.5332
MEAN_ANOMALY   = 343.6539

EPHEMERIS_TYPE = 0
CLASSIFICATION_TYPE = U
NORAD_CAT_ID   = 20466
ELEMENT_SET_NO = 999
REV_AT_EPOCH   = 92523
BSTAR          = .51127E-4
MEAN_MOTION_DOT = .446E-5
MEAN_MOTION_DDOT = 0

CCSDS_OMM_VERS = 2.0
CREATION_DATE  = 
ORIGINATOR     = 

OBJECT_NAME    = SL-14 R/B
OBJECT_ID      = 1990-018B
CENTER_NAME    = EARTH
REF_FRAME      = TEME
TIME_SYSTEM    = UTC
MEAN_ELEMENT_THEORY = SGP/SGP4

EPOCH          = 2026-02-15T13:27:30.517632
MEAN_MOTION    = 14.82120668
ECCENTRICITY   = .0016768
INCLINATION    = 82.5179
RA_OF_ASC_NODE = 243.7772
ARG_OF_PERICENTER = 160.1142
MEAN_ANOMALY   = 200.0729

EPHEMERIS_TYPE = 0
CLASSIFICATION_TYPE = U
NORAD_CAT_ID   = 20511
ELEMENT_SET_NO = 999
REV_AT_EPOCH   = 91930
BSTAR          = .59004E-4
MEAN_MOTION_DOT = .494E-5
MEAN_MOTION_DDOT = 0

CCSDS_OMM_VERS = 2.0
CREATION_DATE  = 
ORIGINATOR     = 

OBJECT_NAME    = HST
OBJECT_ID      = 1990-037B
CENTER_NAME    = EARTH
REF_FRAME      = TEME
TIME_SYSTEM    = UTC
MEAN_ELEMENT_THEORY = SGP/SGP4

EPOCH          = 2026-02-15T10:17:20.434272
MEAN_MOTION    = 15.29118613
ECCENTRICITY   = .00013694
INCLINATION    = 28.4670
RA_OF_ASC_NODE = 191.8156
ARG_OF_PERICENTER = 214.6582
MEAN_ANOMALY   = 145.3924

EPHEMERIS_TYPE = 0
CLASSIFICATION_TYPE = U
NORAD_CAT_ID   = 20580
ELEMENT_SET_NO = 999
REV_AT_EPOCH   = 76990
BSTAR          = .29710223E-3
MEAN_MOTION_DOT = .8875E-4
MEAN_MOTION_DDOT = 0

CCSDS_OMM_VERS = 2.0
CREATION_DATE  = 
ORIGINATOR     = 

OBJECT_NAME    = SL-16 R/B
OBJECT_ID      = 1990-046B
CENTER_NAME    = EARTH
REF_FRAME      = TEME
TIME_SYSTEM    = UTC
MEAN_ELEMENT_THEORY = SGP/SGP4

EPOCH          = 2026-02-15T05:12:48.250368
MEAN_MOTION    = 14.15010537
ECCENTRICITY   = .0015119
INCLINATION    = 71.0013
RA_OF_ASC_NODE = 345.1080
ARG_OF_PERICENTER = 330.9489
MEAN_ANOMALY   = 29.0790

EPHEMERIS_TYPE = 0
CLASSIFICATION_TYPE = U
NORAD_CAT_ID   = 20625
ELEMENT_SET_NO = 999
REV_AT_EPOCH   = 84521
BSTAR          = .20318E-3
MEAN_MOTION_DOT = .346E-5
MEAN_MOTION_DDOT = 0

CCSDS_OMM_VERS = 2.0
CREATION_DATE  = 
ORIGINATOR     = 

OBJECT_NAME    = COSMOS 2084
OBJECT_ID      = 1990-055A
CENTER_NAME    = EARTH
REF_FRAME      = TEME
TIME_SYSTEM    = UTC
MEAN_ELEMENT_THEORY = SGP/SGP4

EPOCH          = 2026-02-15T09:43:58.255104
MEAN_MOTION    = 15.05503510
ECCENTRICITY   = .00205422
INCLINATION    = 62.7897
RA_OF_ASC_NODE = 51.5722
ARG_OF_PERICENTER = 185.1591
MEAN_ANOMALY   = 174.9301

EPHEMERIS_TYPE = 0
CLASSIFICATION_TYPE = U
NORAD_CAT_ID   = 20663
ELEMENT_SET_NO = 999
REV_AT_EPOCH   = 93296
BSTAR          = .2500131E-3
MEAN_MOTION_DOT = .3427E-4
MEAN_MOTION_DDOT = 0

CCSDS_OMM_VERS = 2.0
CREATION_DATE  = 
ORIGINATOR     = 

OBJECT_NAME    = SL-6 R/B(2)
OBJECT_ID      = 1990-055D
CENTER_NAME    = EARTH
REF_FRAME      = TEME
TIME_SYSTEM    = UTC
MEAN_ELEMENT_THEORY = SGP/SGP4

EPOCH          = 2026-02-15T18:10:09.673824
MEAN_MOTION    = 15.03483855
ECCENTRICITY   = .0021426
INCLINATION    = 62.7847
RA_OF_ASC_NODE = 328.4296
ARG_OF_PERICENTER = 341.1075
MEAN_ANOMALY   = 18.9227

EPHEMERIS_TYPE = 0
CLASSIFICATION_TYPE = U
NORAD_CAT_ID   = 20666
ELEMENT_SET_NO = 999
REV_AT_EPOCH   = 93489
BSTAR          = .21252E-3
MEAN_MOTION_DOT = .2724E-4
MEAN_MOTION_DDOT = 0

CCSDS_OMM_VERS = 2.0
CREATION_DATE  = 
ORIGINATOR     = 

OBJECT_NAME    = SL-8 R/B
OBJECT_ID      = 1990-078B
CENTER_NAME    = EARTH
REF_FRAME      = TEME
TIME_SYSTEM    = UTC
MEAN_ELEMENT_THEORY = SGP/SGP4

EPOCH          = 2026-02-15T14:18:46.842336
MEAN_MOTION    = 14.88315131
ECCENTRICITY   = .0366373
INCLINATION    = 82.9014
RA_OF_ASC_NODE = 271.1696
ARG_OF_PERICENTER = 88.0366
MEAN_ANOMALY   = 276.2761

EPHEMERIS_TYPE = 0
CLASSIFICATION_TYPE = U
NORAD_CAT_ID   = 20775
ELEMENT_SET_NO = 999
REV_AT_EPOCH   = 80601
BSTAR          = .46309E-3
MEAN_MOTION_DOT = .15769E-3
MEAN_MOTION_DDOT = 0

CCSDS_OMM_VERS = 2.0
CREATION_DATE  = 
ORIGINATOR     = 

OBJECT_NAME    = SL-8 R/B
OBJECT_ID      = 1991-006B
CENTER_NAME    = EARTH
REF_FRAME      = TEME
TIME_SYSTEM    = UTC
MEAN_ELEMENT_THEORY = SGP/SGP4

EPOCH          = 2026-02-15T18:29:37.109760
MEAN_MOTION    = 13.77492297
ECCENTRICITY   = .0023757
INCLINATION    = 82.9443
RA_OF_ASC_NODE = 186.3406
ARG_OF_PERICENTER = 96.7406
MEAN_ANOMALY   = 13.3383

EPHEMERIS_TYPE = 0
CLASSIFICATION_TYPE = U
NORAD_CAT_ID   = 21088
ELEMENT_SET_NO = 999
REV_AT_EPOCH   = 76105
BSTAR          = .40625E-5
MEAN_MOTION_DOT = .2E-6
MEAN_MOTION_DDOT = 0

CCSDS_OMM_VERS = 2.0
CREATION_DATE  = 
ORIGINATOR     = 

OBJECT_NAME    = OKEAN-3
OBJECT_ID      = 1991-039A
CENTER_NAME    = EARTH
REF_FRAME      = TEME
TIME_SYSTEM    = UTC
MEAN_ELEMENT_THEORY = SGP/SGP4

EPOCH          = 2026-02-15T20:48:46.513728
MEAN_MOTION    = 15.04631613
ECCENTRICITY   = .0016022
INCLINATION    = 82.5190
RA_OF_ASC_NODE = 357.9771
ARG_OF_PERICENTER = 48.8053
MEAN_ANOMALY   = 311.4552

EPHEMERIS_TYPE = 0
CLASSIFICATION_TYPE = U
NORAD_CAT_ID   = 21397
ELEMENT_SET_NO = 999
REV_AT_EPOCH   = 86175
BSTAR          = .35125E-3
MEAN_MOTION_DOT = .4975E-4
MEAN_MOTION_DDOT = 0

CCSDS_OMM_VERS = 2.0
CREATION_DATE  = 
ORIGINATOR     = 

OBJECT_NAME    = COSMOS 2151
OBJECT_ID      = 1991-042A
CENTER_NAME    = EARTH
REF_FRAME      = TEME
TIME_SYSTEM    = UTC
MEAN_ELEMENT_THEORY = SGP/SGP4

EPOCH          = 2026-02-15T19:17:31.100352
MEAN_MOTION    = 15.00020583
ECCENTRICITY   = .0013748
INCLINATION    = 82.4952
RA_OF_ASC_NODE = 104.7901
ARG_OF_PERICENTER = 129.5123
MEAN_ANOMALY   = 230.7318

EPHEMERIS_TYPE = 0
CLASSIFICATION_TYPE = U
NORAD_CAT_ID   = 21422
ELEMENT_SET_NO = 999
REV_AT_EPOCH   = 85991
BSTAR          = .13222E-3
MEAN_MOTION_DOT = .1674E-4
MEAN_MOTION_DDOT = 0

