DELTA 2 R/B(1)          
1 20453U 90008B   26046.15089972  .00061323  00000+0  79537-3 0  9998
2 20453  35.6054 322.4081 0090984  48.0753 312.7696 15.52817677922620
COSMOS 2058             
1 20465U 90010A   26046.53270935  .00004817  00000+0  28555-3 0  9996
2 20465  82.4654  69.2561 0011352  58.2033 302.0301 15.11113810938898
SL-14 R/B               
1 20466U 90010B   26046.76663093  .00000446  00000+0  51127-4 0  9999
2 20466  82.5017 287.9841 0020263  16.5332 343.6539 14.83549839925233
SL-14 R/B               
1 20511U 90018B   26046.56076988  .00000494  00000+0  59004-4 0  9992
2 20511  82.5179 243.7772 0016768 160.1142 200.0729 14.82120668919308
HST                     
1 20580U 90037B   26046.42870873  .00008875  00000+0  29710-3 0  9990
2 20580  28.4670 191.8156 0001369 214.6582 145.3924 15.29118613769908
SL-16 R/B               
1 20625U 90046B   26046.21722512  .00000346  00000+0  20318-3 0  9993
2 20625  71.0013 345.1080 0015119 330.9489  29.0790 14.15010537845217
COSMOS 2084             
1 20663U 90055A   26046.40553536  .00003427  00000+0  25001-3 0  9991
2 20663  62.7897  51.5722 0020542 185.1591 174.9301 15.05503510932962
SL-6 R/B(2)             
1 20666U 90055D   26046.75705641  .00002724  00000+0  21252-3 0  9991
2 20666  62.7847 328.4296 0021426 341.1075  18.9227 15.03483855934890
SL-8 R/B                
1 20775U 90078B   26046.59637549  .00015769  00000+0  46309-3 0  9993
2 20775  82.9014 271.1696 0366373  88.0366 276.2761 14.88315131806019
SL-8 R/B                
1 21088U 91006B   26046.77056840  .00000020  00000+0  40625-5 0  9993
2 21088  82.9443 186.3406 0023757  96.7406  13.3383 13.77492297761056
OKEAN-3                 
1 21397U 91039A   26046.86720502  .00004975  00000+0  35125-3 0  9995
2 21397  82.5190 357.9771 0016022  48.8053 311.4552 15.04631613861755
COSMOS 2151             
1 21422U 91042A   26046.80383218  .00001674  00000+0  13222-3 0  9998
2 21422  82.4952 104.7901 0013748 129.5123 230.7318 15.00020583859911
